{"type": "FeatureCollection", "features": [ {"type": "Feature", "properties": {"norad_id": 35287, "name": "COSMOS 2251 DEB", "group": "cosmos-2251-debris", "lat": 18.90188677457631, "lon": 89.35541811160539, "alt_km": 781.0811210800339, "timestamp": "2025-12-13T08:49:16.087639+00:00", "meta": {"OBJECT_NAME": "COSMOS 2251 DEB", "OBJECT_ID": "1993-036AJR", "EPOCH": "2025-12-12T18:50:27.508704", "MEAN_MOTION": 14.36376648, "ECCENTRICITY": 0.00175707, "INCLINATION": 74.0306, "RA_OF_ASC_NODE": 276.0523, "ARG_OF_PERICENTER": 12.7536, "MEAN_ANOMALY": 16.4384, "EPHEMERIS_TYPE": 0, "CLASSIFICATION_TYPE": "U", "NORAD_CAT_ID": 35287, "ELEMENT_SET_NO": 999, "REV_AT_EPOCH": 86893, "BSTAR": 0.0002345138, "MEAN_MOTION_DOT": 6.61e-06, "MEAN_MOTION_DDOT": 0}, "tle": {"line1": "1 35287U 93036AJR 25346.78504061  .00000661  00000+0  23451-3 0  9997", "line2": "2 35287  74.0306 276.0523 0017570  12.7536  16.4384 14.36376648868934"}}, "geometry": {"type": "Point", "coordinates": [89.35541811160539, 18.90188677457631]}}, {"type": "Feature", "properties": {"norad_id": 35288, "name": "COSMOS 2251 DEB", "group": "cosmos-2251-debris", "lat": 15.82306224460263, "lon": 18.639105660024242, "alt_km": 693.4898060658461, "timestamp": "2025-12-13T08:49:16.087649+00:00", "meta": {"OBJECT_NAME": "COSMOS 2251 DEB", "OBJECT_ID": "1993-036AJS", "EPOCH": "2025-12-12T09:48:30.439296", "MEAN_MOTION": 14.65452012, "ECCENTRICITY": 0.0039471, "INCLINATION": 73.9515, "RA_OF_ASC_NODE": 15.8142, "ARG_OF_PERICENTER": 249.4236, "MEAN_ANOMALY": 110.2696, "EPHEMERIS_TYPE": 0, "CLASSIFICATION_TYPE": "U", "NORAD_CAT_ID": 35288, "ELEMENT_SET_NO": 999, "REV_AT_EPOCH": 87873, "BSTAR": 0.0015709682, "MEAN_MOTION_DOT": 8.58e-05, "MEAN_MOTION_DDOT": 0}, "tle": {"line1": "1 35288U 93036AJS 25346.40868564  .00008580  00000+0  15710-2 0  9994", "line2": "2 35288  73.9515  15.8142 0039471 249.4236 110.2696 14.65452012878731"}}, "geometry": {"type": "Point", "coordinates": [18.639105660024242, 15.82306224460263]}}, {"type": "Feature", "properties": {"norad_id": 35290, "name": "COSMOS 2251 DEB", "group": "cosmos-2251-debris", "lat": -29.690527606454875, "lon": 48.780903234145654, "alt_km": 634.6598148650437, "timestamp": "2025-12-13T08:49:16.087659+00:00", "meta": {"OBJECT_NAME": "COSMOS 2251 DEB", "OBJECT_ID": "1993-036AJU", "EPOCH": "2025-12-12T15:07:13.855008", "MEAN_MOTION": 14.80385127, "ECCENTRICITY": 0.00022331, "INCLINATION": 74.0052, "RA_OF_ASC_NODE": 59.6495, "ARG_OF_PERICENTER": 198.3357, "MEAN_ANOMALY": 161.7739, "EPHEMERIS_TYPE": 0, "CLASSIFICATION_TYPE": "U", "NORAD_CAT_ID": 35290, "ELEMENT_SET_NO": 999, "REV_AT_EPOCH": 87956, "BSTAR": 0.0028741773, "MEAN_MOTION_DOT": 0.00021986, "MEAN_MOTION_DDOT": 0}, "tle": {"line1": "1 35290U 93036AJU 25346.63002147  .00021986  00000+0  28742-2 0  9993", "line2": "2 35290  74.0052  59.6495 0002233 198.3357 161.7739 14.80385127879561"}}, "geometry": {"type": "Point", "coordinates": [48.780903234145654, -29.690527606454875]}}, {"type": "Feature", "properties": {"norad_id": 35432, "name": "COSMOS 2251 DEB", "group": "cosmos-2251-debris", "lat": -59.968395825451076, "lon": -15.481154718253753, "alt_km": 497.1614570452748, "timestamp": "2025-12-13T08:49:16.087669+00:00", "meta": {"OBJECT_NAME": "COSMOS 2251 DEB", "OBJECT_ID": "1993-036AKA", "EPOCH": "2025-12-12T01:34:13.254816", "MEAN_MOTION": 15.22745879, "ECCENTRICITY": 0.00122124, "INCLINATION": 74.023, "RA_OF_ASC_NODE": 16.9721, "ARG_OF_PERICENTER": 343.1165, "MEAN_ANOMALY": 16.9626, "EPHEMERIS_TYPE": 0, "CLASSIFICATION_TYPE": "U", "NORAD_CAT_ID": 35432, "ELEMENT_SET_NO": 999, "REV_AT_EPOCH": 87493, "BSTAR": 0.0062046454, "MEAN_MOTION_DOT": 0.00148065, "MEAN_MOTION_DDOT": 0}, "tle": {"line1": "1 35432U 93036AKA 25346.06543119  .00148065  00000+0  62046-2 0  9990", "line2": "2 35432  74.0230  16.9721 0012212 343.1165  16.9626 15.22745879874933"}}, "geometry": {"type": "Point", "coordinates": [-15.481154718253753, -59.968395825451076]}}, {"type": "Feature", "properties": {"norad_id": 35433, "name": "COSMOS 2251 DEB", "group": "cosmos-2251-debris", "lat": -73.51846857236555, "lon": -98.0880486444664, "alt_km": 791.3457291335217, "timestamp": "2025-12-13T08:49:16.087679+00:00", "meta": {"OBJECT_NAME": "COSMOS 2251 DEB", "OBJECT_ID": "1993-036AKB", "EPOCH": "2025-12-10T18:27:52.031808", "MEAN_MOTION": 14.34742553, "ECCENTRICITY": 0.00254013, "INCLINATION": 74.0339, "RA_OF_ASC_NODE": 342.0559, "ARG_OF_PERICENTER": 37.4572, "MEAN_ANOMALY": 142.4072, "EPHEMERIS_TYPE": 0, "CLASSIFICATION_TYPE": "U", "NORAD_CAT_ID": 35433, "ELEMENT_SET_NO": 999, "REV_AT_EPOCH": 86552, "BSTAR": 0.00041847558, "MEAN_MOTION_DOT": 1.164e-05, "MEAN_MOTION_DDOT": 0}, "tle": {"line1": "1 35433U 93036AKB 25344.76935222  .00001164  00000+0  41848-3 0  9992", "line2": "2 35433  74.0339 342.0559 0025401  37.4572 142.4072 14.34742553865528"}}, "geometry": {"type": "Point", "coordinates": [-98.0880486444664, -73.51846857236555]}}, {"type": "Feature", "properties": {"norad_id": 35434, "name": "COSMOS 2251 DEB", "group": "cosmos-2251-debris", "lat": 11.441036050074509, "lon": 29.172474022829885, "alt_km": 833.3816347388029, "timestamp": "2025-12-13T08:49:16.087689+00:00", "meta": {"OBJECT_NAME": "COSMOS 2251 DEB", "OBJECT_ID": "1993-036AKC", "EPOCH": "2025-12-12T23:36:24.163200", "MEAN_MOTION": 14.25688916, "ECCENTRICITY": 0.00874872, "INCLINATION": 74.0404, "RA_OF_ASC_NODE": 213.1853, "ARG_OF_PERICENTER": 283.8698, "MEAN_ANOMALY": 75.2728, "EPHEMERIS_TYPE": 0, "CLASSIFICATION_TYPE": "U", "NORAD_CAT_ID": 35434, "ELEMENT_SET_NO": 999, "REV_AT_EPOCH": 86121, "BSTAR": 0.00087030714, "MEAN_MOTION_DOT": 2.123e-05, "MEAN_MOTION_DDOT": 0}, "tle": {"line1": "1 35434U 93036AKC 25346.98361300  .00002123  00000+0  87031-3 0  9999", "line2": "2 35434  74.0404 213.1853 0087487 283.8698  75.2728 14.25688916861210"}}, "geometry": {"type": "Point", "coordinates": [29.172474022829885, 11.441036050074509]}}, {"type": "Feature", "properties": {"norad_id": 35435, "name": "COSMOS 2251 DEB", "group": "cosmos-2251-debris", "lat": 55.56145958656914, "lon": -101.88924929408617, "alt_km": 627.0384227177019, "timestamp": "2025-12-13T08:49:16.087699+00:00", "meta": {"OBJECT_NAME": "COSMOS 2251 DEB", "OBJECT_ID": "1993-036AKD", "EPOCH": "2025-12-12T14:28:49.329408", "MEAN_MOTION": 14.7846616, "ECCENTRICITY": 0.00079831, "INCLINATION": 74.0098, "RA_OF_ASC_NODE": 104.3344, "ARG_OF_PERICENTER": 198.3859, "MEAN_ANOMALY": 176.7731, "EPHEMERIS_TYPE": 0, "CLASSIFICATION_TYPE": "U", "NORAD_CAT_ID": 35435, "ELEMENT_SET_NO": 999, "REV_AT_EPOCH": 87537, "BSTAR": 0.0033882672, "MEAN_MOTION_DOT": 0.00024794, "MEAN_MOTION_DDOT": 0}, "tle": {"line1": "1 35435U 93036AKD 25346.60334872  .00024794  00000+0  33883-2 0  9996", "line2": "2 35435  74.0098 104.3344 0007983 198.3859 176.7731 14.78466160875374"}}, "geometry": {"type": "Point", "coordinates": [-101.88924929408617, 55.56145958656914]}}, {"type": "Feature", "properties": {"norad_id": 35439, "name": "COSMOS 2251 DEB", "group": "cosmos-2251-debris", "lat": -32.42389223201855, "lon": -35.84724473355447, "alt_km": 917.2299806266046, "timestamp": "2025-12-13T08:49:16.087709+00:00", "meta": {"OBJECT_NAME": "COSMOS 2251 DEB", "OBJECT_ID": "1993-036AKH", "EPOCH": "2025-12-11T04:55:48.885888", "MEAN_MOTION": 13.92796753, "ECCENTRICITY": 0.02419274, "INCLINATION": 74.0198, "RA_OF_ASC_NODE": 137.3683, "ARG_OF_PERICENTER": 307.011, "MEAN_ANOMALY": 232.6694, "EPHEMERIS_TYPE": 0, "CLASSIFICATION_TYPE": "U", "NORAD_CAT_ID": 35439, "ELEMENT_SET_NO": 999, "REV_AT_EPOCH": 83939, "BSTAR": 0.0020869419, "MEAN_MOTION_DOT": 3.412e-05, "MEAN_MOTION_DDOT": 0}, "tle": {"line1": "1 35439U 93036AKH 25345.20542692  .00003412  00000+0  20869-2 0  9990", "line2": "2 35439  74.0198 137.3683 0241927 307.0110 232.6694 13.92796753839399"}}, "geometry": {"type": "Point", "coordinates": [-35.84724473355447, -32.42389223201855]}}, {"type": "Feature", "properties": {"norad_id": 35440, "name": "COSMOS 2251 DEB", "group": "cosmos-2251-debris", "lat": 71.24494200927452, "lon": -31.17766094536148, "alt_km": 676.2295765260633, "timestamp": "2025-12-13T08:49:16.087720+00:00", "meta": {"OBJECT_NAME": "COSMOS 2251 DEB", "OBJECT_ID": "1993-036AKJ", "EPOCH": "2025-12-10T08:26:45.842208", "MEAN_MOTION": 14.68793955, "ECCENTRICITY": 0.00692048, "INCLINATION": 74.0146, "RA_OF_ASC_NODE": 212.2531, "ARG_OF_PERICENTER": 353.6751, "MEAN_ANOMALY": 6.3537, "EPHEMERIS_TYPE": 0, "CLASSIFICATION_TYPE": "U", "NORAD_CAT_ID": 35440, "ELEMENT_SET_NO": 999, "REV_AT_EPOCH": 68730, "BSTAR": 0.0006737672, "MEAN_MOTION_DOT": 4.046e-05, "MEAN_MOTION_DDOT": 0}, "tle": {"line1": "1 35440U 93036AKJ 25344.35191947  .00004046  00000+0  67377-3 0  9990", "line2": "2 35440  74.0146 212.2531 0069204 353.6751   6.3537 14.68793955687302"}}, "geometry": {"type": "Point", "coordinates": [-31.17766094536148, 71.24494200927452]}}, {"type": "Feature", "properties": {"norad_id": 35441, "name": "COSMOS 2251 DEB", "group": "cosmos-2251-debris", "lat": 36.792635523231255, "lon": -50.81395415572655, "alt_km": 705.266777777988, "timestamp": "2025-12-13T08:49:16.087730+00:00", "meta": {"OBJECT_NAME": "COSMOS 2251 DEB", "OBJECT_ID": "1993-036AKK", "EPOCH": "2025-12-12T12:56:42.829440", "MEAN_MOTION": 14.62591505, "ECCENTRICITY": 0.00367107, "INCLINATION": 74.1346, "RA_OF_ASC_NODE": 298.4823, "ARG_OF_PERICENTER": 195.2945, "MEAN_ANOMALY": 164.7117, "EPHEMERIS_TYPE": 0, "CLASSIFICATION_TYPE": "U", "NORAD_CAT_ID": 35441, "ELEMENT_SET_NO": 999, "REV_AT_EPOCH": 87427, "BSTAR": 0.0023913784, "MEAN_MOTION_DOT": 0.00012258, "MEAN_MOTION_DDOT": 0}, "tle": {"line1": "1 35441U 93036AKK 25346.53938460  .00012258  00000+0  23914-2 0  9994", "line2": "2 35441  74.1346 298.4823 0036710 195.2945 164.7117 14.62591505874275"}}, "geometry": {"type": "Point", "coordinates": [-50.81395415572655, 36.792635523231255]}}]}